ONEWEB-0141             
1 47287U 20100AF  26077.29300146 -.00000397  00000+0 -11381-2 0  9994
2 47287  87.9015   8.6877 0001727  68.8877 291.2436 13.12443636252758
ONEWEB-0142             
1 47288U 20100AG  26077.28141906 -.00000127  00000+0 -38901-3 0  9990
2 47288  87.9011   8.7148 0001996  67.4292 292.7048 13.12443702252749
ONEWEB-0143             
1 47289U 20100AH  26077.29144426 -.00000305  00000+0 -88244-3 0  9995
2 47289  87.9012   8.7089 0001802  77.4844 282.6486 13.12443391252721
ONEWEB-0144             
1 47290U 20100AJ  26077.26265191  .00000436  00000+0  11768-2 0  9996
2 47290  87.9016   8.6849 0002173  75.8638 284.2732 13.12441350252641
ONEWEB-0145             
1 47291U 20100AK  26077.08138187 -.00000156  00000+0 -46790-3 0  9996
2 47291  87.9007   8.7586 0001897  76.6714 283.4626 13.12444034252811
ONEWEB-0146             
1 47292U 20100AL  26077.30668870 -.00000186  00000+0 -55314-3 0  9994
2 47292  87.9010   8.6990 0001565  87.0625 273.0682 13.12443300252758
ONEWEB-0147             
1 47293U 20100AM  26077.27281832  .00000156  00000+0  39963-3 0  9997
2 47293  87.9015   8.6861 0002044  84.5760 275.5602 13.12442681252644
ONEWEB-0115             
1 48042U 21025A   26077.14348443 -.00000142  00000+0 -42291-3 0  9990
2 48042  87.9042 338.3350 0001724  80.4033 279.7291 13.13471140241646
ONEWEB-0152             
1 48043U 21025B   26077.15703027  .00000201  00000+0  51679-3 0  9999
2 48043  87.9035 338.3334 0001686  82.3445 277.7875 13.13471057241605
ONEWEB-0153             
1 48044U 21025C   26077.13502170 -.00000241  00000+0 -69412-3 0  9994
2 48044  87.9028 338.3424 0001781  76.3852 283.7475 13.13471046241598
ONEWEB-0154             
1 48045U 21025D   26077.13162617 -.00000411  00000+0 -11600-2 0  9997
2 48045  87.9034 338.3411 0001840  82.1317 278.0021 13.13469755241553
ONEWEB-0116             
1 48046U 21025E   26077.09439881  .00000281  00000+0  73532-3 0  9999
2 48046  87.9034 338.3374 0001651  82.9293 277.2024 13.13469926241692
ONEWEB-0150             
1 48047U 21025F   26077.14687081 -.00000110  00000+0 -33678-3 0  9993
2 48047  87.9038 338.3242 0001645  73.2580 286.8730 13.13471292241594
ONEWEB-0107             
1 48048U 21025G   26077.14856867 -.00000046  00000+0 -15957-3 0  9992
2 48048  87.9036 338.3192 0001948  73.1217 287.0126 13.13470574241571
ONEWEB-0101             
1 48049U 21025H   26077.26368495  .00000200  00000+0  51155-3 0  9991
2 48049  87.9029 338.3217 0001890  78.6901 281.4441 13.13470222241565
ONEWEB-0113             
1 48050U 21025J   26077.09091230  .00000245  00000+0  63276-3 0  9990
2 48050  87.9035 338.2744 0001456  88.8803 271.2494 13.13951003241645
