[{"OBJECT_NAME":"ONEWEB-0141","OBJECT_ID":"2020-100AF","EPOCH":"2026-03-18T07:01:55.326144","MEAN_MOTION":13.12443636,"ECCENTRICITY":0.00017274,"INCLINATION":87.9015,"RA_OF_ASC_NODE":8.6877,"ARG_OF_PERICENTER":68.8877,"MEAN_ANOMALY":291.2436,"EPHEMERIS_TYPE":0,"CLASSIFICATION_TYPE":"U","NORAD_CAT_ID":47287,"ELEMENT_SET_NO":999,"REV_AT_EPOCH":25275,"BSTAR":-0.0011380682,"MEAN_MOTION_DOT":-3.97e-6,"MEAN_MOTION_DDOT":0},{"OBJECT_NAME":"ONEWEB-0142","OBJECT_ID":"2020-100AG","EPOCH":"2026-03-18T06:45:14.606784","MEAN_MOTION":13.12443702,"ECCENTRICITY":0.00019967,"INCLINATION":87.9011,"RA_OF_ASC_NODE":8.7148,"ARG_OF_PERICENTER":67.4292,"MEAN_ANOMALY":292.7048,"EPHEMERIS_TYPE":0,"CLASSIFICATION_TYPE":"U","NORAD_CAT_ID":47288,"ELEMENT_SET_NO":999,"REV_AT_EPOCH":25274,"BSTAR":-0.00038900624,"MEAN_MOTION_DOT":-1.27e-6,"MEAN_MOTION_DDOT":0},{"OBJECT_NAME":"ONEWEB-0143","OBJECT_ID":"2020-100AH","EPOCH":"2026-03-18T06:59:40.784064","MEAN_MOTION":13.12443391,"ECCENTRICITY":0.00018022,"INCLINATION":87.9012,"RA_OF_ASC_NODE":8.7089,"ARG_OF_PERICENTER":77.4844,"MEAN_ANOMALY":282.6486,"EPHEMERIS_TYPE":0,"CLASSIFICATION_TYPE":"U","NORAD_CAT_ID":47289,"ELEMENT_SET_NO":999,"REV_AT_EPOCH":25272,"BSTAR":-0.00088243716,"MEAN_MOTION_DOT":-3.05e-6,"MEAN_MOTION_DDOT":0},{"OBJECT_NAME":"ONEWEB-0144","OBJECT_ID":"2020-100AJ","EPOCH":"2026-03-18T06:18:13.125024","MEAN_MOTION":13.1244135,"ECCENTRICITY":0.00021734,"INCLINATION":87.9016,"RA_OF_ASC_NODE":8.6849,"ARG_OF_PERICENTER":75.8638,"MEAN_ANOMALY":284.2732,"EPHEMERIS_TYPE":0,"CLASSIFICATION_TYPE":"U","NORAD_CAT_ID":47290,"ELEMENT_SET_NO":999,"REV_AT_EPOCH":25264,"BSTAR":0.0011768007,"MEAN_MOTION_DOT":4.36e-6,"MEAN_MOTION_DDOT":0},{"OBJECT_NAME":"ONEWEB-0145","OBJECT_ID":"2020-100AK","EPOCH":"2026-03-18T01:57:11.393568","MEAN_MOTION":13.12444034,"ECCENTRICITY":0.00018977,"INCLINATION":87.9007,"RA_OF_ASC_NODE":8.7586,"ARG_OF_PERICENTER":76.6714,"MEAN_ANOMALY":283.4626,"EPHEMERIS_TYPE":0,"CLASSIFICATION_TYPE":"U","NORAD_CAT_ID":47291,"ELEMENT_SET_NO":999,"REV_AT_EPOCH":25281,"BSTAR":-0.00046789531,"MEAN_MOTION_DOT":-1.56e-6,"MEAN_MOTION_DDOT":0},{"OBJECT_NAME":"ONEWEB-0146","OBJECT_ID":"2020-100AL","EPOCH":"2026-03-18T07:21:37.903680","MEAN_MOTION":13.124433,"ECCENTRICITY":0.0001565,"INCLINATION":87.901,"RA_OF_ASC_NODE":8.699,"ARG_OF_PERICENTER":87.0625,"MEAN_ANOMALY":273.0682,"EPHEMERIS_TYPE":0,"CLASSIFICATION_TYPE":"U","NORAD_CAT_ID":47292,"ELEMENT_SET_NO":999,"REV_AT_EPOCH":25275,"BSTAR":-0.00055313918,"MEAN_MOTION_DOT":-1.86e-6,"MEAN_MOTION_DDOT":0},{"OBJECT_NAME":"ONEWEB-0147","OBJECT_ID":"2020-100AM","EPOCH":"2026-03-18T06:32:51.502848","MEAN_MOTION":13.12442681,"ECCENTRICITY":0.00020441,"INCLINATION":87.9015,"RA_OF_ASC_NODE":8.6861,"ARG_OF_PERICENTER":84.576,"MEAN_ANOMALY":275.5602,"EPHEMERIS_TYPE":0,"CLASSIFICATION_TYPE":"U","NORAD_CAT_ID":47293,"ELEMENT_SET_NO":999,"REV_AT_EPOCH":25264,"BSTAR":0.00039963342,"MEAN_MOTION_DOT":1.56e-6,"MEAN_MOTION_DDOT":0},{"OBJECT_NAME":"ONEWEB-0115","OBJECT_ID":"2021-025A","EPOCH":"2026-03-18T03:26:37.054752","MEAN_MOTION":13.1347114,"ECCENTRICITY":0.00017241,"INCLINATION":87.9042,"RA_OF_ASC_NODE":338.335,"ARG_OF_PERICENTER":80.4033,"MEAN_ANOMALY":279.7291,"EPHEMERIS_TYPE":0,"CLASSIFICATION_TYPE":"U","NORAD_CAT_ID":48042,"ELEMENT_SET_NO":999,"REV_AT_EPOCH":24164,"BSTAR":-0.00042290682,"MEAN_MOTION_DOT":-1.42e-6,"MEAN_MOTION_DDOT":0},{"OBJECT_NAME":"ONEWEB-0152","OBJECT_ID":"2021-025B","EPOCH":"2026-03-18T03:46:07.415328","MEAN_MOTION":13.13471057,"ECCENTRICITY":0.00016867,"INCLINATION":87.9035,"RA_OF_ASC_NODE":338.3334,"ARG_OF_PERICENTER":82.3445,"MEAN_ANOMALY":277.7875,"EPHEMERIS_TYPE":0,"CLASSIFICATION_TYPE":"U","NORAD_CAT_ID":48043,"ELEMENT_SET_NO":999,"REV_AT_EPOCH":24160,"BSTAR":0.00051679289,"MEAN_MOTION_DOT":2.01e-6,"MEAN_MOTION_DDOT":0},{"OBJECT_NAME":"ONEWEB-0153","OBJECT_ID":"2021-025C","EPOCH":"2026-03-18T03:14:25.874880","MEAN_MOTION":13.13471046,"ECCENTRICITY":0.0001781,"INCLINATION":87.9028,"RA_OF_ASC_NODE":338.3424,"ARG_OF_PERICENTER":76.3852,"MEAN_ANOMALY":283.7475,"EPHEMERIS_TYPE":0,"CLASSIFICATION_TYPE":"U","NORAD_CAT_ID":48044,"ELEMENT_SET_NO":999,"REV_AT_EPOCH":24159,"BSTAR":-0.00069412003,"MEAN_MOTION_DOT":-2.41e-6,"MEAN_MOTION_DDOT":0},{"OBJECT_NAME":"ONEWEB-0154","OBJECT_ID":"2021-025D","EPOCH":"2026-03-18T03:09:32.501088","MEAN_MOTION":13.13469755,"ECCENTRICITY":0.00018401,"INCLINATION":87.9034,"RA_OF_ASC_NODE":338.3411,"ARG_OF_PERICENTER":82.1317,"MEAN_ANOMALY":278.0021,"EPHEMERIS_TYPE":0,"CLASSIFICATION_TYPE":"U","NORAD_CAT_ID":48045,"ELEMENT_SET_NO":999,"REV_AT_EPOCH":24155,"BSTAR":-0.0011600127,"MEAN_MOTION_DOT":-4.11e-6,"MEAN_MOTION_DDOT":0},{"OBJECT_NAME":"ONEWEB-0116","OBJECT_ID":"2021-025E","EPOCH":"2026-03-18T02:15:56.057184","MEAN_MOTION":13.13469926,"ECCENTRICITY":0.00016515,"INCLINATION":87.9034,"RA_OF_ASC_NODE":338.3374,"ARG_OF_PERICENTER":82.9293,"MEAN_ANOMALY":277.2024,"EPHEMERIS_TYPE":0,"CLASSIFICATION_TYPE":"U","NORAD_CAT_ID":48046,"ELEMENT_SET_NO":999,"REV_AT_EPOCH":24169,"BSTAR":0.00073531568,"MEAN_MOTION_DOT":2.81e-6,"MEAN_MOTION_DDOT":0},{"OBJECT_NAME":"ONEWEB-0150","OBJECT_ID":"2021-025F","EPOCH":"2026-03-18T03:31:29.637984","MEAN_MOTION":13.13471292,"ECCENTRICITY":0.00016455,"INCLINATION":87.9038,"RA_OF_ASC_NODE":338.3242,"ARG_OF_PERICENTER":73.258,"MEAN_ANOMALY":286.873,"EPHEMERIS_TYPE":0,"CLASSIFICATION_TYPE":"U","NORAD_CAT_ID":48047,"ELEMENT_SET_NO":999,"REV_AT_EPOCH":24159,"BSTAR":-0.00033678088,"MEAN_MOTION_DOT":-1.1e-6,"MEAN_MOTION_DDOT":0},{"OBJECT_NAME":"ONEWEB-0107","OBJECT_ID":"2021-025G","EPOCH":"2026-03-18T03:33:56.333088","MEAN_MOTION":13.13470574,"ECCENTRICITY":0.00019483,"INCLINATION":87.9036,"RA_OF_ASC_NODE":338.3192,"ARG_OF_PERICENTER":73.1217,"MEAN_ANOMALY":287.0126,"EPHEMERIS_TYPE":0,"CLASSIFICATION_TYPE":"U","NORAD_CAT_ID":48048,"ELEMENT_SET_NO":999,"REV_AT_EPOCH":24157,"BSTAR":-0.00015956592,"MEAN_MOTION_DOT":-4.6e-7,"MEAN_MOTION_DDOT":0},{"OBJECT_NAME":"ONEWEB-0101","OBJECT_ID":"2021-025H","EPOCH":"2026-03-18T06:19:42.379680","MEAN_MOTION":13.13470222,"ECCENTRICITY":0.00018907,"INCLINATION":87.9029,"RA_OF_ASC_NODE":338.3217,"ARG_OF_PERICENTER":78.6901,"MEAN_ANOMALY":281.4441,"EPHEMERIS_TYPE":0,"CLASSIFICATION_TYPE":"U","NORAD_CAT_ID":48049,"ELEMENT_SET_NO":999,"REV_AT_EPOCH":24156,"BSTAR":0.00051154654,"MEAN_MOTION_DOT":2.0e-6,"MEAN_MOTION_DDOT":0},{"OBJECT_NAME":"ONEWEB-0113","OBJECT_ID":"2021-025J","EPOCH":"2026-03-18T02:10:54.822720","MEAN_MOTION":13.13951003,"ECCENTRICITY":0.00014563,"INCLINATION":87.9035,"RA_OF_ASC_NODE":338.2744,"ARG_OF_PERICENTER":88.8803,"MEAN_ANOMALY":271.2494,"EPHEMERIS_TYPE":0,"CLASSIFICATION_TYPE":"U","NORAD_CAT_ID":48050,"ELEMENT_SET_NO":999,"REV_AT_EPOCH":24164,"BSTAR":0.00063276334,"MEAN_MOTION_DOT":2.45e-6,"MEAN_MOTION_DDOT":0}]
